161P/Hartley-IRAS,e,95.5773,1.2300,46.9494,7.721339,0.0459373,0.83544677,187.3135,08/15.0/2016,2000,g  8.5,6.0
# From MPC 92985
162P/Siding Spring,e,27.7972,31.1768,356.5147,3.058865,0.1842314,0.59508802,73.6853,08/15.0/2016,2000,g 12.0,4.0
# From MPC 78188
163P/NEAT,e,12.7136,102.1106,349.7993,3.767429,0.1347834,0.45232432,213.7308,08/15.0/2016,2000,g 14.5,4.0
# From MPC 94676
164P/Christensen,e,16.2559,88.3132,325.9725,3.659368,0.1407975,0.53968165,267.8503,08/15.0/2016,2000,g 11.0,4.0
# From MPC 75721
165P/LINEAR,e,15.9043,0.5090,126.4071,17.90485,0.0130091,0.61772508,76.8144,08/15.0/2016,2000,g 11.5,2.0
# From MPC 75722
166P/NEAT,e,15.3600,64.4944,322.0985,13.89405,0.0190310,0.37955716,99.2091,08/15.0/2016,2000,g  5.5,4.0
# From MPC 75722
167P/CINEOS,e,19.1048,295.8221,343.4768,16.14742,0.0151897,0.27180568,85.2313,08/15.0/2016,2000,g  9.5,2.0
# From MPC 82322
168P/Hergenrother,e,22.0045,356.4006,13.6784,3.606682,0.1438939,0.61390969,203.0785,08/15.0/2016,2000,g 15.5,4.0
# From MPC 94676
169P/NEAT,e,11.2990,176.1230,218.0060,2.603858,0.2345730,0.76733599,213.8812,08/15.0/2016,2000,g 16.0,2.0
# From MPC 89012
170P/Christensen,e,10.1277,142.9201,225.8331,4.197580,0.1146056,0.30394712,79.9040,08/15.0/2016,2000,g 12.0,4.0
# From MPC 79024
171P/Spahr,e,21.9415,101.7129,347.2067,3.556378,0.1469577,0.50221251,230.4311,08/15.0/2016,2000,g 13.5,4.0
# From MPC 93588
172P/Yeung,e,11.2348,30.8890,209.0619,4.214193,0.1139285,0.20814536,336.1100,08/15.0/2016,2000,g 13.0,4.0
# From MPC 75722
173P/Mueller,e,16.5009,100.4602,29.6235,5.691196,0.0725937,0.26176102,218.3698,08/15.0/2016,2000,g  7.5,4.0
# From MPC 92985
174P/Echeclus,e,4.3447,173.3356,162.8531,10.68007,0.0282386,0.45541613,13.5936,08/15.0/2016,2000,g  9.4,2.0
# From MPC 84321
175P/Hergenrother,e,6.0769,123.5753,56.0763,3.429566,0.1551834,0.43259841,182.9166,08/15.0/2016,2000,g 14.0,4.0
# From MPC 88331
176P/LINEAR,e,0.2347,345.9808,35.3819,3.195758,0.1725215,0.19277198,323.8947,08/15.0/2016,2000,g 15.1,2.0
# From MPC 75723
177P/Barnard,e,31.1858,272.0916,60.5807,24.39454,0.0081802,0.95412111,29.8197,08/15.0/2016,2000,g 15.0,4.0
# From MPC 87068
178P/Hug-Bell,e,10.9721,103.3938,296.6843,3.659065,0.1408150,0.47549973,157.5502,08/15.0/2016,2000,g 13.5,4.0
# From MPC 75723
179P/Jedicke,e,19.8718,115.5491,296.3251,5.945263,0.0679904,0.30530228,216.4279,08/15.0/2016,2000,g  2.5,8.0
# From MPC 10028
180P/NEAT,e,16.8718,84.5689,94.8582,3.857757,0.1300774,0.35472499,32.0497,08/15.0/2016,2000,g 11.0,4.0
# From MPC 89012
181P/Shoemaker-Levy,e,17.3714,35.7522,335.9834,3.860704,0.1299285,0.70530066,103.6688,08/15.0/2016,2000,g 11.5,4.0
# From MPC 88331
182P/LONEOS,e,16.2398,72.7970,53.8729,2.962027,0.1933395,0.65960214,313.6681,08/15.0/2016,2000,g 18.0,4.0
# From NK 2735
183P/Korlevic-Juric,e,18.7540,5.8439,161.1472,4.486146,0.1037275,0.13668521,313.0559,08/15.0/2016,2000,g 12.5,2.0
# From MPC 86232
184P/Lovas,e,4.5974,173.6274,186.8201,3.752328,0.1355979,0.56495290,153.2800,08/15.0/2016,2000,g 13.5,4.0
# From MPC 94676
185P/Petriew,e,13.9937,214.0982,181.9178,3.101005,0.1804888,0.69871033,264.2013,08/15.0/2016,2000,g 15.0,4.0
# From MPC 10028
186P/Garradd,e,28.4920,327.3133,284.7710,4.987302,0.0884923,0.12110540,271.1616,08/15.0/2016,2000,g  7.5,4.0
# From MPC 75724
187P/LINEAR,e,13.5990,110.7360,134.4884,4.589995,0.1002272,0.15749112,293.5243,08/15.0/2016,2000,g  9.0,4.0
# From MPC 10028
188P/LINEAR-Mueller,e,10.5116,358.9811,26.7840,4.383728,0.1073838,0.41486859,340.0177,08/15.0/2016,2000,g 11.5,4.0
# From NK 2724
189P/NEAT,e,20.0707,281.8121,16.1634,2.947141,0.1948062,0.58847016,290.6746,08/15.0/2016,2000,g 19.0,4.0
# From MPC 75724
190P/Mueller,e,2.1727,335.5518,50.4174,4.241901,0.1128141,0.52069242,14.5698,08/15.0/2016,2000,g 13.0,4.0
# From MPC 92277
191P/McNaught,e,8.6543,105.3127,276.6191,3.557426,0.1468927,0.42032934,121.7296,08/15.0/2016,2000,g 13.0,4.0
# From MPC 75724
192P/Shoemaker-Levy,e,24.5171,51.6632,312.9535,6.476616,0.0597973,0.77157737,189.7172,08/15.0/2016,2000,g 15.0,4.0
# From MPC 91618
193P/LINEAR-NEAT,e,10.6872,335.1932,8.4129,3.574540,0.1458390,0.39394124,91.8077,08/15.0/2016,2000,g 14.0,4.0
# From MPC 98566
194P/LINEAR,e,11.1375,351.9937,130.6989,4.000515,0.1231772,0.57566244,20.3947,08/15.0/2016,2000,g 16.0,4.0
# From MPC 75724
195P/Hill,e,36.3514,243.1248,249.7106,6.482688,0.0597133,0.31563320,164.8900,08/15.0/2016,2000,g  8.5,4.0
# From MPC 92985
196P/Tichy,e,19.3787,24.2471,12.0353,3.776119,0.1343184,0.43430142,57.3579,08/15.0/2016,2000,g 13.5,4.0
# From MPC 94676
197P/LINEAR,e,25.5545,66.3931,188.6936,2.864982,0.2032456,0.62995658,251.8895,08/15.0/2016,2000,g 16.5,2.0
# From MPC 65937
198P/ODAS,e,1.3394,358.3355,69.3245,3.599695,0.1443130,0.44321901,237.1849,08/15.0/2016,2000,g 12.5,4.0
# From MPC 75725
199P/Shoemaker,e,24.9054,92.3672,191.4324,5.911104,0.0685806,0.50407740,185.0105,08/15.0/2016,2000,g 10.0,4.0
# From MPC 75725
200P/Larsen,e,12.1062,234.8031,133.9405,4.930989,0.0900125,0.33081689,262.9805,08/15.0/2016,2000,g  9.0,4.0
# From MPC 93588
201P/LONEOS,e,7.0466,35.1791,24.9752,3.455825,0.1534180,0.61392515,88.6896,08/15.0/2016,2000,g 14.0,4.0
# From MPC 75725
202P/Scotti,e,2.1882,194.5267,255.7447,3.769822,0.1346551,0.33198232,8.7492,08/15.0/2016,2000,g 13.5,4.0
# From MPC 75725
203P/Korlevic,e,2.9757,290.3912,155.1175,4.662776,0.0978898,0.31511564,232.8550,08/15.0/2016,2000,g 14.5,2.0
# From MPC 98566
204P/LINEAR-NEAT,e,6.5873,109.0480,355.0993,3.657746,0.1408912,0.47255025,34.8521,08/15.0/2016,2000,g 14.0,4.0
# From MPC 98566
205P/Giacobini,e,15.2851,179.6185,154.2077,3.546655,0.1475624,0.56678896,67.7430,08/15.0/2016,2000,g 13.0,4.0
# From MPC 75725
206P/Barnard-Boattini,e,33.1752,203.8480,181.7483,3.240559,0.1689562,0.64738910,121.2132,08/15.0/2016,2000,g 19.0,4.0
# From MPC 75725
207P/NEAT,e,10.1608,200.5439,271.2878,3.877057,0.1291073,0.75820443,5.7729,08/15.0/2016,2000,g 16.0,4.0
# From MPC 75725
208P/McMillan,e,4.4075,36.4145,310.5101,4.052894,0.1207970,0.37216392,5.3469,08/15.0/2016,2000,g 12.5,4.0
# From MPC 90771
209P/LINEAR,e,21.2476,62.7826,152.4415,2.963077,0.1932367,0.67315842,160.6556,08/15.0/2016,2000,g 17.0,2.0
# From MPC 89013
210P/Christensen,e,10.2376,93.8288,345.8266,3.170400,0.1745955,0.83220275,127.2657,08/15.0/2016,2000,g 13.5,4.0
# From MPC 96868
211P/Hill,e,18.8822,117.2542,4.4459,3.560438,0.1467064,0.33986281,29.4372,08/15.0/2016,2000,g 12.5,4.0
# From MPC 75726
212P/NEAT,e,22.4280,98.8860,15.0805,3.916498,0.1271620,0.58009610,356.6413,08/15.0/2016,2000,g 17.0,2.0
# From MPC 88331
213P/Van Ness,e,10.3791,311.3649,5.4237,3.349837,0.1607565,0.40751872,294.8739,08/15.0/2016,2000,g 10.5,4.0
# From MPC 92986
214P/LINEAR,e,15.2051,348.2657,190.2434,3.611557,0.1436026,0.48730773,39.6794,08/15.0/2016,2000,g 13.0,4.0
# From MPC 81861
215P/NEAT,e,10.1832,58.9746,257.0053,4.371814,0.1078230,0.18796167,235.7229,08/15.0/2016,2000,g 11.0,4.0
# From MPC 10028
216P/LINEAR,e,9.0482,359.8732,151.5829,3.877479,0.1290862,0.44558857,9.7938,08/15.0/2016,2000,g 13.0,4.0
# From MPC 75726
217P/LINEAR,e,12.8563,125.4563,246.9540,3.955386,0.1252913,0.68764950,317.9545,08/15.0/2016,2000,g 12.0,4.0
# From MPC 95214
218P/LINEAR,e,2.7254,176.0219,59.6713,3.096109,0.1809172,0.62172181,86.7976,08/15.0/2016,2000,g 16.0,4.0
# From MPC 10028
219P/LINEAR,e,11.5287,231.0282,107.4150,3.652098,0.1412181,0.35236705,333.2180,08/15.0/2016,2000,g 11.0,4.0
# From MPC 96868
220P/McNaught,e,8.1253,150.1120,180.6439,3.115627,0.1792198,0.50130492,76.7608,08/15.0/2016,2000,g 15.0,4.0
# From MPC 93589
221P/LINEAR,e,11.4246,229.7479,39.9498,3.460368,0.1531160,0.49195982,61.3005,08/15.0/2016,2000,g 14.5,4.0
# From MPC 92277
222P/LINEAR,e,5.1733,6.7853,346.3695,2.887134,0.2009110,0.72102917,155.2574,08/15.0/2016,2000,g 20.0,4.0
# From MPC 75727
223P/Skiff,e,27.0166,346.7994,37.8710,4.154486,0.1163933,0.41481944,255.7467,08/15.0/2016,2000,g 12.0,4.0
# From MPC 75727
224P/LINEAR-NEAT,e,13.4261,40.4754,16.3225,3.412365,0.1563583,0.41585337,12.8816,08/15.0/2016,2000,g 15.5,4.0
# From MPC 75727
225P/LINEAR,e,21.3351,14.1820,3.9236,3.654798,0.1410617,0.63759893,359.7240,08/15.0/2016,2000,g 18.0,4.0
# From MPEC 2016-M22
226P/Pigott-LINEAR-Kowalski,e,44.0033,54.0062,341.1317,3.770724,0.1346068,0.52889712,357.1519,08/15.0/2016,2000,g  9.0,4.0
# From MPC 75727
227P/Catalina-LINEAR,e,6.5268,49.7999,90.2410,3.585023,0.1451998,0.50123443,314.8235,08/15.0/2016,2000,g 16.5,2.0
# From MPC 75728
228P/LINEAR,e,7.9113,31.0109,115.2491,4.176519,0.1154735,0.17805212,209.5829,08/15.0/2016,2000,g 14.5,2.0
# From MPC 75728
229P/Gibbs,e,26.0688,157.9078,224.1727,3.935707,0.1262321,0.37605797,324.8018,08/15.0/2016,2000,g 13.0,4.0
# From MPC 95735
230P/LINEAR,e,14.6491,112.3788,308.9694,3.401490,0.1571087,0.56327601,42.5542,08/15.0/2016,2000,g 13.0,4.0
# From MPC 75728
231P/LINEAR-NEAT,e,12.3300,133.0557,42.4923,4.022208,0.1221820,0.24804063,233.9014,08/15.0/2016,2000,g 14.5,2.0
# From MPC 75728
232P/Hill,e,14.6291,56.0442,53.6077,4.486820,0.1037041,0.33540467,259.9759,08/15.0/2016,2000,g 11.5,4.0
# From MPC 92986
233P/La Sagra,e,11.2811,74.9311,27.2004,3.031284,0.1867515,0.41104177,77.8133,08/15.0/2016,2000,g 15.0,4.0
# From MPC 82322
234P/LINEAR,e,11.5264,179.7228,358.1448,3.809194,0.1325728,0.25240742,321.4278,08/15.0/2016,2000,g 12.0,4.0
# From MPC 75728
235P/LINEAR,e,8.9037,204.4576,333.6714,3.991580,0.1235910,0.31524380,288.4134,08/15.0/2016,2000,g 12.0,4.0
# From MPC 75728
236P/LINEAR,e,16.3329,245.6732,119.2689,3.732208,0.1366958,0.50759493,296.8175,08/15.0/2016,2000,g 14.0,4.0
# From MPC 99821
237P/LINEAR,e,14.0229,245.4337,25.0368,3.509643,0.1499028,0.43445848,351.3559,08/15.0/2016,2000,g 14.5,2.0
# From MPC 89731
238P/Read,e,1.2647,51.6535,324.9503,3.165272,0.1750199,0.25246875,347.9853,08/15.0/2016,2000,g 14.5,4.0
# From MPC 75729
239P/LINEAR,e,11.3059,255.9495,220.3810,4.470235,0.1042818,0.63148214,268.4483,08/15.0/2016,2000,g 17.5,2.0
# From MPC 94676
240P/NEAT,e,23.5058,74.9411,352.1545,3.870920,0.1294144,0.44905518,277.2636,08/15.0/2016,2000,g 12.0,4.0
